[{"OBJECT_NAME":"STARLINK-4353","OBJECT_ID":"2022-084AB","EPOCH":"2026-03-09T17:59:23.719776","MEAN_MOTION":15.01262056,"ECCENTRICITY":8.49e-5,"INCLINATION":97.6033,"RA_OF_ASC_NODE":130.2603,"ARG_OF_PERICENTER":92.4598,"MEAN_ANOMALY":267.6723,"EPHEMERIS_TYPE":0,"CLASSIFICATION_TYPE":"U","NORAD_CAT_ID":53214,"ELEMENT_SET_NO":999,"REV_AT_EPOCH":19932,"BSTAR":4.166687e-6,"MEAN_MOTION_DOT":-5.0e-8,"MEAN_MOTION_DDOT":0},{"OBJECT_NAME":"FENGYUN 1C DEB","OBJECT_ID":"1999-025AZA","EPOCH":"2026-03-09T00:58:11.092224","MEAN_MOTION":14.92309795,"ECCENTRICITY":0.00550776,"INCLINATION":98.9912,"RA_OF_ASC_NODE":286.2715,"ARG_OF_PERICENTER":182.0101,"MEAN_ANOMALY":178.0901,"EPHEMERIS_TYPE":0,"CLASSIFICATION_TYPE":"U","NORAD_CAT_ID":30912,"ELEMENT_SET_NO":999,"REV_AT_EPOCH":687,"BSTAR":0.0018683847,"MEAN_MOTION_DOT":0.00019628,"MEAN_MOTION_DDOT":0}]
